GLOBALSTAR M040         
1 25622U 99004B   25354.07675329 -.00000058  00000+0  25507-3 0  9992
2 25622  51.9894 211.8278 0002011  78.5773  80.7871 12.62025425238727
GLOBALSTAR M036         
1 25623U 99004C   25354.06048808 -.00000126  00000+0 -62414-3 0  9993
2 25623  51.9964 110.3893 0010840  50.4818 120.5297 11.86617741201043
GLOBALSTAR M038         
1 25624U 99004D   25354.03728604 -.00000061  00000+0  28251-3 0  9998
2 25624  51.9972 256.3409 0002711  73.6135 300.5143 12.32537555225293
GLOBALSTAR M022         
1 25649U 99012A   25354.20955603 -.00000113  00000+0 -31538-3 0  9995
2 25649  52.0019 145.2033 0003140 158.8758  12.0694 12.02508310198757
GLOBALSTAR M041         
1 25650U 99012B   25353.81427906 -.00000090  00000+0 -53834-4 0  9991
2 25650  52.0040  33.3885 0000866 335.8932  24.1864 11.96681239200502
GLOBALSTAR M046         
1 25651U 99012C   25353.47774846 -.00000190  00000+0 -11183-2 0  9992
2 25651  52.0055  90.5630 0001482 244.8403 196.4804 12.09415481206084
GLOBALSTAR M037         
1 25652U 99012D   25353.90446218 -.00000088  00000+0  88406-4 0  9999
2 25652  52.0025 338.4728 0001693 238.8436 132.0164 12.62458533234739
